{
    "links": {
        "self": "http://www.neowsapp.com/rest/v1/neo/3602742?api_key=iIulBulltgU6a56xZRHN4H3l9WmuAYTsLGpBGhQ2"
    },
    "id": "3602742",
    "neo_reference_id": "3602742",
    "name": "(2012 HQ2)",
    "designation": "2012 HQ2",
    "nasa_jpl_url": "http://ssd.jpl.nasa.gov/sbdb.cgi?sstr=3602742",
    "absolute_magnitude_h": 24.1,
    "estimated_diameter": {
        "kilometers": {
            "estimated_diameter_min": 0.040230458,
            "estimated_diameter_max": 0.0899580388
        },
        "meters": {
            "estimated_diameter_min": 40.2304579834,
            "estimated_diameter_max": 89.9580388169
        },
        "miles": {
            "estimated_diameter_min": 0.0249980399,
            "estimated_diameter_max": 0.0558973165
        },
        "feet": {
            "estimated_diameter_min": 131.9896957704,
            "estimated_diameter_max": 295.1379320721
        }
    },
    "is_potentially_hazardous_asteroid": false,
    "close_approach_data": [
        {
            "close_approach_date": "1951-02-06",
            "close_approach_date_full": "1951-Feb-06 12:08",
            "epoch_date_close_approach": -596461920000,
            "relative_velocity": {
                "kilometers_per_second": "15.4361347297",
                "kilometers_per_hour": "55570.0850269902",
                "miles_per_hour": "34529.0897769095"
            },
            "miss_distance": {
                "astronomical": "0.3709658372",
                "lunar": "144.3057106708",
                "kilometers": "55495699.087886764",
                "miles": "34483428.3953907832"
            },
            "orbiting_body": "Earth"
        },
        {
            "close_approach_date": "2005-02-13",
            "close_approach_date_full": "2005-Feb-13 08:05",
            "epoch_date_close_approach": 1108281900000,
            "relative_velocity": {
                "kilometers_per_second": "12.5656809652",
                "kilometers_per_hour": "45236.4514746646",
                "miles_per_hour": "28108.1717510214"
            },
            "miss_distance": {
                "astronomical": "0.284951164",
                "lunar": "110.846002796",
                "kilometers": "42628087.18842068",
                "miles": "26487865.120258184"
            },
            "orbiting_body": "Earth"
        },
        {
            "close_approach_date": "2012-03-26",
            "close_approach_date_full": "2012-Mar-26 01:47",
            "epoch_date_close_approach": 1332726420000,
            "relative_velocity": {
                "kilometers_per_second": "4.871661065",
                "kilometers_per_hour": "17537.9798341094",
                "miles_per_hour": "10897.4186363665"
            },
            "miss_distance": {
                "astronomical": "0.0539675382",
                "lunar": "20.9933723598",
                "kilometers": "8073428.763863634",
                "miles": "5016596.0112167892"
            },
            "orbiting_body": "Earth"
        },
        {
            "close_approach_date": "2019-05-02",
            "close_approach_date_full": "2019-May-02 16:40",
            "epoch_date_close_approach": 1556815200000,
            "relative_velocity": {
                "kilometers_per_second": "13.3213170464",
                "kilometers_per_hour": "47956.741367063",
                "miles_per_hour": "29798.4541011065"
            },
            "miss_distance": {
                "astronomical": "0.302348626",
                "lunar": "117.613615514",
                "kilometers": "45230710.44702662",
                "miles": "28105060.222822556"
            },
            "orbiting_body": "Earth"
        }
    ],
    "orbital_data": {
        "orbit_id": "10",
        "orbit_determination_date": "2017-04-06 08:50:02",
        "first_observation_date": "2012-04-20",
        "last_observation_date": "2012-05-29",
        "data_arc_in_days": 39,
        "observations_used": 40,
        "orbit_uncertainty": "7",
        "minimum_orbit_intersection": ".0532873",
        "jupiter_tisserand_invariant": "4.007",
        "epoch_osculation": "2459000.5",
        "eccentricity": ".4077867408631641",
        "semi_major_axis": "1.767540742931809",
        "inclination": "2.665345665424034",
        "ascending_node_longitude": "204.8211536558814",
        "orbital_period": "858.3266101555166",
        "perihelion_distance": "1.046761064028791",
        "perihelion_argument": "334.13979981",
        "aphelion_distance": "2.488320421834827",
        "perihelion_time": "2458581.335471625481",
        "mean_anomaly": "175.8063054662676",
        "mean_motion": ".4194207609790556",
        "equinox": "J2000",
        "orbit_class": {
            "orbit_class_type": "AMO",
            "orbit_class_description": "Near-Earth asteroid orbits similar to that of 1221 Amor",
            "orbit_class_range": "1.017 AU < q (perihelion) < 1.3 AU"
        }
    },
    "is_sentry_object": false
}